NORAD_CAT_ID,OBJECT_NAME,OBJECT_TYPE,EPOCH,MEAN_MOTION,ECCENTRICITY,INCLINATION,RA_OF_ASC_NODE,ARG_OF_PERICENTER,MEAN_ANOMALY,BSTAR,MEAN_MOTION_DOT,MEAN_MOTION_DDOT,TLE_LINE0,TLE_LINE1,TLE_LINE2,SEMIMAJOR_AXIS,PERIOD,APOGEE,PERIGEE,DECAYED
50207.0,STARLINK-3262,PAYLOAD,2022-05-25 18:47:25,15.08842896,0.0002199,53.2195,331.7107,43.3553,316.7612,0.00010279,1.348e-05,0.0,0 STARLINK-3262,1 50207U 21125BD  22145.78293715  .00001348  00000-0  10279-3 0  9999,2 50207  53.2195 331.7107 0002199  43.3553 316.7612 15.08842896 25809,6917.871999999999,95.437,541.258,538.215,0.0
50207.0,STARLINK-3262,PAYLOAD,2022-05-26 05:55:07,15.08841425,0.0002082,53.2196,329.6284,44.8688,315.2473,5.8738e-05,6.47e-06,0.0,0 STARLINK-3262,1 50207U 21125BD  22146.24661819  .00000647  00000-0  58738-4 0  9999,2 50207  53.2196 329.6284 0002082  44.8688 315.2473 15.08841425 25871,6917.876,95.437,541.181,538.3009999999998,0.0
50207.0,STARLINK-3262,PAYLOAD,2022-05-26 22:00:00,15.08825549,0.000208,53.2181,326.6221,38.5584,3.1694,0.00036084,5.457e-05,0.0,0 STARLINK-3262,1 50207U 21125BD  22146.91667824  .00005457  00000-0  36084-3 0  9998,2 50207  53.2181 326.6221 0002080  38.5584   3.1694 15.08825549 25974,6917.925,95.438,541.2280000000002,538.351,0.0
50207.0,STARLINK-3262,PAYLOAD,2022-05-27 14:00:01,15.08847154,0.0001897,53.2185,323.6279,41.9209,22.9598,-0.00060003,-9.827e-05,0.0,0 STARLINK-3262,1 50207U 21125BD  22147.58334491 -.00009827  00000-0 -60003-3 0  9998,2 50207  53.2185 323.6279 0001897  41.9209  22.9598 15.08847154  1304,6917.859,95.437,541.036,538.411,0.0
50207.0,STARLINK-3262,PAYLOAD,2022-05-27 22:00:01,15.08825367,0.0002052,53.2183,322.1329,36.7963,39.7499,0.0027267,0.00043358,0.0,0 STARLINK-3262,1 50207U 21125BD  22147.91668981  .00043358  00000-0  27267-2 0  9998,2 50207  53.2183 322.1329 0002052  36.7963  39.7499 15.08825367 26120,6917.925,95.438,541.21,538.371,0.0
50207.0,STARLINK-3262,PAYLOAD,2022-05-28 14:00:01,15.08853356,0.0001883,53.2181,319.1395,39.502,60.1659,-0.0023325,-0.00037233,0.0,0 STARLINK-3262,1 50207U 21125BD  22148.58334491 -.00037233  00000-0 -23325-2 0  9996,2 50207  53.2181 319.1395 0001883  39.5020  60.1659 15.08853356 26229,6917.84,95.437,541.007,538.4019999999998,0.0
50207.0,STARLINK-3262,PAYLOAD,2022-05-28 19:55:10,15.08836093,0.0002046,53.2203,318.0313,40.9997,319.1149,5.1271e-05,5.28e-06,0.0,0 STARLINK-3262,1 50207U 21125BD  22148.82998518  .00000528  00000-0  51271-4 0  9997,2 50207  53.2203 318.0313 0002046  40.9997 319.1149 15.08836093 26267,6917.892,95.438,541.173,538.342,0.0
50207.0,STARLINK-3262,PAYLOAD,2022-05-29 06:00:02,15.08822066,0.0001836,53.2183,316.1455,40.4013,82.5542,0.0018486,0.00029241,0.0,0 STARLINK-3262,1 50207U 21125BD  22149.25002315  .00029241  00000-0  18486-2 0  9998,2 50207  53.2183 316.1455 0001836  40.4013  82.5542 15.08822066 26320,6917.935,95.439,541.07,538.53,0.0
50207.0,STARLINK-3262,PAYLOAD,2022-05-29 14:00:01,15.08866839,0.0001867,53.2184,314.6497,41.8891,92.5729,-0.0041857,-0.0006634,0.0,0 STARLINK-3262,1 50207U 21125BD  22149.58334491 -.00066340  00000-0 -41857-2 0  9998,2 50207  53.2184 314.6497 0001867  41.8891  92.5729 15.08866839  1308,6917.7980000000025,95.436,540.955,538.372,0.0
50207.0,STARLINK-3262,PAYLOAD,2022-05-29 19:45:57,15.08838397,0.0001931,53.2202,313.5717,45.0328,315.0821,3.2385e-05,2.27e-06,0.0,0 STARLINK-3262,1 50207U 21125BD  22149.82358599  .00000227  00000-0  32385-4 0  9998,2 50207  53.2202 313.5717 0001931  45.0328 315.0821 15.08838397 26418,6917.885,95.438,541.086,538.414,0.0
50207.0,STARLINK-3262,PAYLOAD,2022-05-29 22:00:00,15.08795704,0.0001979,53.218,313.1546,35.4351,110.6336,0.0033584,0.00053502,0.0,0 STARLINK-3262,1 50207U 21125BD  22149.91667824  .00053502  00000-0  33584-2 0  9996,2 50207  53.2180 313.1546 0001979  35.4351 110.6336 15.08795704 26425,6918.016,95.44,541.25,538.512,0.0
50207.0,STARLINK-3262,PAYLOAD,2022-05-30 13:15:13,15.08830901,0.0002012,53.2175,310.2986,36.9303,323.1827,-3.3364e-05,-8.19e-06,0.0,0 STARLINK-3262,1 50207U 21125BD  22150.55223533 -.00000819  00000-0 -33364-4 0  9996,2 50207  53.2175 310.2986 0002012  36.9303 323.1827 15.08830901 26523,6917.908,95.438,541.165,538.381,0.0
50207.0,STARLINK-3262,PAYLOAD,2022-05-30 14:00:01,15.08849121,0.0001842,53.2182,310.1609,41.3458,127.8624,-0.0013049,-0.00021001,0.0,0 STARLINK-3262,1 50207U 21125BD  22150.58334491 -.00021001  00000-0 -13049-2 0  9997,2 50207  53.2182 310.1609 0001842  41.3458 127.8624 15.08849121 26521,6917.853,95.437,540.992,538.443,0.0
50207.0,STARLINK-3262,PAYLOAD,2022-05-30 19:36:45,15.08831661,0.0002007,53.2189,309.1105,42.2462,317.8684,7.7165e-06,-1.65e-06,0.0,0 STARLINK-3262,1 50207U 21125BD  22150.81719495 -.00000165  00000-0  77165-5 0  9993,2 50207  53.2189 309.1105 0002007  42.2462 317.8684 15.08831661 26567,6917.906,95.438,541.159,538.382,0.0
50207.0,STARLINK-3262,PAYLOAD,2022-05-31 06:00:02,15.08832061,0.0001825,53.2178,307.1674,41.9535,150.513,0.001512,0.00023852,0.0,0 STARLINK-3262,1 50207U 21125BD  22151.25002315  .00023852  00000-0  15120-2 0  9995,2 50207  53.2178 307.1674 0001825  41.9535 150.5130 15.08832061 26628,6917.905,95.438,541.0319999999998,538.507,0.0
50207.0,STARLINK-3262,PAYLOAD,2022-05-31 22:00:00,15.08820273,0.0002115,53.2176,304.1765,40.0803,175.5193,0.0025897,0.00041146,0.0,0 STARLINK-3262,1 50207U 21125BD  22151.91667824  .00041146  00000-0  25897-2 0  9998,2 50207  53.2176 304.1765 0002115  40.0803 175.5193 15.08820273 26724,6917.941,95.439,541.269,538.3430000000002,0.0
50207.0,STARLINK-3262,PAYLOAD,2022-06-01 14:00:01,15.0886934,0.0002041,53.2179,301.1831,44.374,194.407,-0.0024719,-0.00039446,0.0,0 STARLINK-3262,1 50207U 21125BD  22152.58334491 -.00039446  00000-0 -24719-2 0  9997,2 50207  53.2179 301.1831 0002041  44.3740 194.4070 15.08869340 26826,6917.791,95.436,541.068,538.244,0.0
50207.0,STARLINK-3262,PAYLOAD,2022-06-01 20:00:01,15.0882706,0.000213,53.218,300.0618,39.5477,117.9533,0.0011813,0.00018556,0.0,0 STARLINK-3262,1 50207U 21125BD  22152.83334491  .00018556  00000-0  11813-2 0  9993,2 50207  53.2180 300.0618 0002130  39.5477 117.9533 15.08827060  1304,6917.92,95.438,541.258,538.311,0.0
50207.0,STARLINK-3262,PAYLOAD,2022-06-02 19:09:06,15.08840674,0.0002074,53.2186,295.7307,43.4251,316.6904,2.0913e-05,4.5e-07,0.0,0 STARLINK-3262,1 50207U 21125BD  22153.79798860  .00000045  00000-0  20913-4 0  9990,2 50207  53.2186 295.7307 0002074  43.4251 316.6904 15.08840674 27018,6917.878000000002,95.438,541.178,538.309,0.0
50207.0,STARLINK-3262,PAYLOAD,2022-06-03 12:38:20,15.08839019,0.0002042,53.2197,292.4593,47.9641,312.1525,-3.7215e-05,-8.8e-06,0.0,0 STARLINK-3262,1 50207U 21125BD  22154.52663056 -.00000880  00000-0 -37215-4 0  9992,2 50207  53.2197 292.4593 0002042  47.9641 312.1525 15.08839019 27121,6917.8830000000025,95.438,541.161,538.336,0.0
50207.0,STARLINK-3262,PAYLOAD,2022-06-03 18:59:53,15.08839085,0.0002152,53.2199,291.2709,50.1407,309.9775,-9.0869e-05,-1.734e-05,0.0,0 STARLINK-3262,1 50207U 21125BD  22154.79159254 -.00001734  00000-0 -90869-4 0  9994,2 50207  53.2199 291.2709 0002152  50.1407 309.9775 15.08839085 27165,6917.8830000000025,95.438,541.237,538.259,0.0
50207.0,STARLINK-3262,PAYLOAD,2022-06-04 09:18:21,15.08833563,0.0002086,53.2203,288.5945,45.4506,314.6657,0.00014356,1.997e-05,0.0,0 STARLINK-3262,1 50207U 21125BD  22155.38774805  .00001997  00000-0  14356-3 0  9990,2 50207  53.2203 288.5945 0002086  45.4506 314.6657 15.08833563 27252,6917.9,95.438,541.2080000000002,538.322,0.0
50207.0,STARLINK-3262,PAYLOAD,2022-06-05 22:00:00,15.08852912,0.0002039,53.2179,281.732,36.3119,353.186,-0.00059737,-9.786e-05,0.0,0 STARLINK-3262,1 50207U 21125BD  22156.91667824 -.00009786  00000-0 -59737-3 0  9990,2 50207  53.2179 281.7320 0002039  36.3119 353.1860 15.08852912 27481,6917.840999999999,95.437,541.116,538.295,0.0
50207.0,STARLINK-3262,PAYLOAD,2022-06-06 14:00:01,15.08850574,0.0001942,53.2178,278.7396,37.6146,15.0975,-0.0028354,-0.00045145,0.0,0 STARLINK-3262,1 50207U 21125BD  22157.58334491 -.00045145  00000-0 -28354-2 0  9994,2 50207  53.2178 278.7396 0001942  37.6146  15.0975 15.08850574  1301,6917.848000000001,95.437,541.057,538.37,0.0
50207.0,STARLINK-3262,PAYLOAD,2022-06-06 18:32:14,15.08833997,0.0001571999999999,53.2188,277.888,41.0191,319.0919,-8.0597e-05,-1.57e-05,0.0,0 STARLINK-3262,1 50207U 21125BD  22157.77239437 -.00001570  00000-0 -80597-4 0  9992,2 50207  53.2188 277.8880 0001572  41.0191 319.0919 15.08833997 27615,6917.899,95.438,540.851,538.6759999999998,0.0
50207.0,STARLINK-3262,PAYLOAD,2022-06-07 12:01:29,15.08835782,0.0001926,53.219,274.6183,38.5789,321.5341,4.737e-05,4.66e-06,0.0,0 STARLINK-3262,1 50207U 21125BD  22158.50103163  .00000466  00000-0  47370-4 0  9993,2 50207  53.2190 274.6183 0001926  38.5789 321.5341 15.08835782 27729,6917.893,95.438,541.091,538.4259999999998,0.0
50207.0,STARLINK-3262,PAYLOAD,2022-06-07 16:47:38,15.08841609,0.0001868,53.2193,273.7258,40.2098,319.9032,5.7667e-05,6.3e-06,0.0,0 STARLINK-3262,1 50207U 21125BD  22158.69974743  .00000630  00000-0  57667-4 0  9996,2 50207  53.2193 273.7258 0001868  40.2098 319.9032 15.08841609 27759,6917.875,95.437,541.033,538.448,0.0
50207.0,STARLINK-3262,PAYLOAD,2022-06-08 13:27:39,15.08843164,0.0002036,53.2191,269.8603,41.3435,318.7711,-3.4005e-05,-8.29e-06,0.0,0 STARLINK-3262,1 50207U 21125BD  22159.56086916 -.00000829  00000-0 -34005-4 0  9992,2 50207  53.2191 269.8603 0002036  41.3435 318.7711 15.08843164 27885,6917.871,95.437,541.144,538.327,0.0
50207.0,STARLINK-3262,PAYLOAD,2022-06-08 19:49:11,15.08843476,0.0001685,53.2185,268.6702,47.602,312.5115,1.2042e-06,-2.69e-06,0.0,0 STARLINK-3262,1 50207U 21125BD  22159.82582648 -.00000269  00000-0  12042-5 0  9999,2 50207  53.2185 268.6702 0001685  47.6020 312.5115 15.08843476 27924,6917.87,95.437,540.9,538.569,0.0
